{
  "61861": {
    "noradId": "61861",
    "tle": [
      "1 61861C 24202S   25304.09562500  .00019386  00000+0  70285-3 0  3044",
      "2 61861  42.9994 249.9810 0001483 272.1346 194.2074 15.27527086    16"
    ]
  },
  "61862": {
    "noradId": "61862",
    "tle": [
      "1 61862C 24202T   25304.10118056 -.00031350  00000+0 -11367-2 0  3042",
      "2 61862  42.9998 249.9010 0001537 262.9851 255.1955 15.27575294    10"
    ]
  },
  "61863": {
    "noradId": "61863",
    "tle": [
      "1 61863C 24202U   25304.09770833 -.00054751  00000+0 -19851-2 0  3044",
      "2 61863  43.0001 250.0696 0001596 270.8111 164.5785 15.27599680    12"
    ]
  },
  "61864": {
    "noradId": "61864",
    "tle": [
      "1 61864C 24202V   25304.10118056 -.00035526  00000+0 -12882-2 0  3046",
      "2 61864  43.0009 250.1358 0001444 259.9234 159.2191 15.27575271    15"
    ]
  },
  "61865": {
    "noradId": "61865",
    "tle": [
      "1 61865C 24202W   25304.09979167 -.00002763  00000+0 -10013-3 0  3045",
      "2 61865  43.0014 250.1943 0001434 260.6517 129.5129 15.27568890    14"
    ]
  },
  "61866": {
    "noradId": "61866",
    "tle": [
      "1 61866C 24202X   25304.09840278 -.00056779  00000+0 -20588-2 0  3049",
      "2 61866  43.0004 250.1170 0001639 272.2227 145.7617 15.27598497    18"
    ]
  },
  "61867": {
    "noradId": "61867",
    "tle": [
      "1 61867C 24202Y   25304.09493056 -.00086164  00000+0 -31206-2 0  3048",
      "2 61867  43.0019 250.2733 0001382 250.6699  91.5458 15.27666706    19"
    ]
  },
  "61874": {
    "noradId": "61874",
    "tle": [
      "1 61874C 24204A   25304.12548611  .00021844  00000+0  18003-3 0  3043",
      "2 61874  53.1569 275.3334 0001106  88.8164 156.1692 15.69674779    19"
    ]
  },
  "61875": {
    "noradId": "61875",
    "tle": [
      "1 61875C 24204B   25304.12340278  .00012498  00000+0  10300-3 0  3040",
      "2 61875  53.1568 274.6446 0001263 119.3597  86.6956 15.69685776    18"
    ]
  },
  "61876": {
    "noradId": "61876",
    "tle": [
      "1 61876C 24204C   25304.11993056  .00023622  00000+0  19472-3 0  3048",
      "2 61876  53.1566 275.2837 0001143  91.1241 150.2161 15.69668448    11"
    ]
  },
  "61877": {
    "noradId": "61877",
    "tle": [
      "1 61877C 24204D   25304.12131944  .00035858  00000+0  29557-3 0  3049",
      "2 61877  53.1565 275.2197 0001201  96.8325 180.1025 15.69656996    16"
    ]
  },
  "61878": {
    "noradId": "61878",
    "tle": [
      "1 61878C 24204E   25304.12479167  .00028548  00000+0  23531-3 0  3046",
      "2 61878  53.1567 275.1455 0001293 106.9645 217.3324 15.69665288    13"
    ]
  },
  "61879": {
    "noradId": "61879",
    "tle": [
      "1 61879C 24204F   25304.12062500  .00028326  00000+0  23348-3 0  3046",
      "2 61879  53.1566 275.1088 0001282  91.9986 236.4728 15.69665290    17"
    ]
  },
  "61880": {
    "noradId": "61880",
    "tle": [
      "1 61880C 24204G   25304.12131944  .00040727  00000+0  33582-3 0  3047",
      "2 61880  53.1566 275.0480 0001527  59.7746 300.3801 15.69643304    17"
    ]
  },
  "61881": {
    "noradId": "61881",
    "tle": [
      "1 61881C 24204H   25304.12409722  .00036652  00000+0  30207-3 0  3043",
      "2 61881  53.1565 274.9773 0001286  80.4399 323.1352 15.69660340    10"
    ]
  },
  "61882": {
    "noradId": "61882",
    "tle": [
      "1 61882C 24204J   25304.12618056  .00034549  00000+0  28483-3 0  3042",
      "2 61882  53.1564 274.9099 0001233  87.2628 355.8435 15.69654991    12"
    ]
  },
  "61883": {
    "noradId": "61883",
    "tle": [
      "1 61883C 24204K   25304.12270833 -.00001295  00000+0 -10669-4 0  3042",
      "2 61883  53.1564 274.8132 0001391 122.7682 356.1551 15.69697219    13"
    ]
  },
  "61884": {
    "noradId": "61884",
    "tle": [
      "1 61884C 24204L   25304.12201389  .00042859  00000+0  35329-3 0  3041",
      "2 61884  53.1564 274.8735 0001233  83.6258   3.6596 15.69649460    10"
    ]
  },
  "61885": {
    "noradId": "61885",
    "tle": [
      "1 61885C 24204M   25304.12479167  .00025169  00000+0  20742-3 0  3041",
      "2 61885  53.1565 274.7456 0001214 106.5420  51.9015 15.69673562    18"
    ]
  },
  "61886": {
    "noradId": "61886",
    "tle": [
      "1 61886C 24204N   25304.11993056  .00020785  00000+0  17132-3 0  3047",
      "2 61886  53.1566 274.7123 0001114  77.9277  80.7781 15.69673981    16"
    ]
  },
  "61887": {
    "noradId": "61887",
    "tle": [
      "1 61887C 24204P   25304.09909722 -.00056977  00000+0 -19209-2 0  3042",
      "2 61887  53.1587   8.9670 0001272  90.9801  43.3876 15.30239999    12"
    ]
  },
  "61888": {
    "noradId": "61888",
    "tle": [
      "1 61888C 24204Q   25304.09631944  .00027474  00000+0  92661-3 0  3043",
      "2 61888  53.1591   8.8957 0001332  82.6677  77.1642 15.30141777    13"
    ]
  },
  "61889": {
    "noradId": "61889",
    "tle": [
      "1 61889C 24204R   25304.09493056  .00042601  00000+0  14367-2 0  3049",
      "2 61889  53.1587   9.0868 0001117  87.1883 331.8950 15.30130467    19"
    ]
  },
  "61890": {
    "noradId": "61890",
    "tle": [
      "1 61890C 24204S   25304.09840278  .00040587  00000+0  13687-2 0  3048",
      "2 61890  53.1602   9.2420 0001204  90.8480 260.1231 15.30131889    11"
    ]
  },
  "61891": {
    "noradId": "61891",
    "tle": [
      "1 61891C 24204T   25304.09493056  .00040310  00000+0  13596-2 0  3040",
      "2 61891  53.1596   9.1879 0001006  89.7707 276.9681 15.30127519    19"
    ]
  },
  "61892": {
    "noradId": "61892",
    "tle": [
      "1 61892C 24204U   25304.10048611  .00029792  00000+0  10047-2 0  3045",
      "2 61892  53.1608   9.3145 0001309 101.9302 219.8029 15.30143452    12"
    ]
  },
  "61893": {
    "noradId": "61893",
    "tle": [
      "1 61893C 24204V   25304.09493056  .00031975  00000+0  10784-2 0  3045",
      "2 61893  53.1606   8.8019 0001349  89.2308 115.2621 15.30138967    15"
    ]
  },
  "61912": {
    "noradId": "61912",
    "tle": [
      "1 61912C 24207A   25304.09493056  .00029178  00000+0  10572-2 0  3047",
      "2 61912  43.0023 293.5824 0001203 267.4774  62.6214 15.27537941    15"
    ]
  },
  "61913": {
    "noradId": "61913",
    "tle": [
      "1 61913C 24207B   25304.09979167 -.00048146  00000+0 -17444-2 0  3043",
      "2 61913  43.0011 293.9139 0001244 276.4993 291.8033 15.27616038    14"
    ]
  },
  "61914": {
    "noradId": "61914",
    "tle": [
      "1 61914C 24207C   25304.10118056 -.00050422  00000+0 -18269-2 0  3044",
      "2 61914  43.0009 293.1696 0001258 271.1438 249.0394 15.27616785    17"
    ]
  },
  "61915": {
    "noradId": "61915",
    "tle": [
      "1 61915C 24207D   25304.09493056 -.00049458  00000+0 -17918-2 0  3046",
      "2 61915  43.0023 293.3921 0001393 268.4080 139.5189 15.27619171    16"
    ]
  },
  "61916": {
    "noradId": "61916",
    "tle": [
      "1 61916C 24207E   25304.10187500 -.00065807  00000+0 -23845-2 0  3045",
      "2 61916  43.0021 297.3183 0001409 272.3132 324.3003 15.27630831    14"
    ]
  },
  "61917": {
    "noradId": "61917",
    "tle": [
      "1 61917C 24207F   25304.09979167 -.00050087  00000+0 -18150-2 0  3049",
      "2 61917  43.0024 293.4683 0001352 275.4177 116.8416 15.27613044    19"
    ]
  },
  "61918": {
    "noradId": "61918",
    "tle": [
      "1 61918C 24207G   25304.09770833 -.00061303  00000+0 -22214-2 0  3048",
      "2 61918  43.0011 297.4931 0001359 276.6389 233.3551 15.27624917    17"
    ]
  },
  "61919": {
    "noradId": "61919",
    "tle": [
      "1 61919C 24207H   25304.10187500 -.00049942  00000+0 -18090-2 0  3046",
      "2 61919  43.0009 293.1822 0001194 267.1855 249.6927 15.27626565    15"
    ]
  },
  "61920": {
    "noradId": "61920",
    "tle": [
      "1 61920C 24207J   25304.09840278 -.00062700  00000+0 -22719-2 0  3044",
      "2 61920  43.0025 293.6627 0001508 271.2221  35.5759 15.27627244    15"
    ]
  },
  "61921": {
    "noradId": "61921",
    "tle": [
      "1 61921C 24207K   25304.09701389 -.00045639  00000+0 -16534-2 0  3044",
      "2 61921  43.0029 293.4299 0001360 274.7688 123.4046 15.27617249    14"
    ]
  },
  "61922": {
    "noradId": "61922",
    "tle": [
      "1 61922C 24207L   25304.10048611 -.00055034  00000+0 -19929-2 0  3040",
      "2 61922  43.0026 297.2750 0001307 258.9024 351.1889 15.27640536    15"
    ]
  },
  "61923": {
    "noradId": "61923",
    "tle": [
      "1 61923C 24207M   25304.09701389 -.00044517  00000+0 -16130-2 0  3042",
      "2 61923  43.0010 297.5277 0001193 256.2905 235.7202 15.27611168    13"
    ]
  },
  "61924": {
    "noradId": "61924",
    "tle": [
      "1 61924C 24207N   25304.09631944 -.00045511  00000+0 -16489-2 0  3044",
      "2 61924  43.0021 297.4498 0001267 266.6634 256.8827 15.27614942    16"
    ]
  },
  "61925": {
    "noradId": "61925",
    "tle": [
      "1 61925C 24207P   25304.10118056 -.00040874  00000+0 -14810-2 0  3044",
      "2 61925  43.0009 297.5525 0001579 266.0303 227.7073 15.27605861    18"
    ]
  },
  "61926": {
    "noradId": "61926",
    "tle": [
      "1 61926C 24207Q   25304.09770833 -.00051998  00000+0 -18839-2 0  3044",
      "2 61926  43.0009 293.1207 0001474 273.6668 255.6834 15.27621310    12"
    ]
  },
  "61927": {
    "noradId": "61927",
    "tle": [
      "1 61927C 24207R   25304.10187500 -.00045189  00000+0 -16373-2 0  3046",
      "2 61927  43.0010 293.1966 0001075 263.9087 245.9377 15.27612699    15"
    ]
  },
  "61928": {
    "noradId": "61928",
    "tle": [
      "1 61928C 24207S   25304.09979167 -.00053769  00000+0 -19482-2 0  3040",
      "2 61928  43.0027 293.6011 0001447 270.0781  65.5897 15.27620034    18"
    ]
  },
  "61929": {
    "noradId": "61929",
    "tle": [
      "1 61929C 24207T   25304.09701389 -.00072550  00000+0 -26276-2 0  3048",
      "2 61929  43.0023 293.5162 0001489 278.2004  84.5454 15.27651976    14"
    ]
  }
}